[{"OBJECT_NAME":"HAWK-6C","OBJECT_ID":"2023-011C","EPOCH":"2026-03-09T16:08:26.380320","MEAN_MOTION":15.2190256,"ECCENTRICITY":0.00024272,"INCLINATION":40.4846,"RA_OF_ASC_NODE":208.9466,"ARG_OF_PERICENTER":10.2947,"MEAN_ANOMALY":349.7911,"EPHEMERIS_TYPE":0,"CLASSIFICATION_TYPE":"U","NORAD_CAT_ID":55326,"ELEMENT_SET_NO":999,"REV_AT_EPOCH":17268,"BSTAR":0.00033931673,"MEAN_MOTION_DOT":7.702e-5,"MEAN_MOTION_DDOT":0},{"OBJECT_NAME":"TRANSPORTER-15 OBJECT CJ","OBJECT_ID":"2025-276CJ","EPOCH":"2026-03-09T17:19:57.485568","MEAN_MOTION":15.21041958,"ECCENTRICITY":0.00108056,"INCLINATION":97.3697,"RA_OF_ASC_NODE":143.6602,"ARG_OF_PERICENTER":305.0415,"MEAN_ANOMALY":54.9807,"EPHEMERIS_TYPE":0,"CLASSIFICATION_TYPE":"U","NORAD_CAT_ID":66746,"ELEMENT_SET_NO":999,"REV_AT_EPOCH":1533,"BSTAR":0.00077607464,"MEAN_MOTION_DOT":0.00017213,"MEAN_MOTION_DDOT":0}]
