HAWK-6C                 
1 55326U 23011C   26068.67252755  .00007702  00000+0  33932-3 0  9997
2 55326  40.4846 208.9466 0002427  10.2947 349.7911 15.21902560172681
TRANSPORTER-15 OBJECT CJ
1 66746U 25276CJ  26068.72219311  .00017213  00000+0  77607-3 0  9992
2 66746  97.3697 143.6602 0010806 305.0415  54.9807 15.21041958 15338
